[
  {
    "OBJECT_NAME": "TRANSPORTER-16 OBJECT J",
    "OBJECT_ID": "2026-067J",
    "EPOCH": "2026-04-17T05:41:14.383392",
    "MEAN_MOTION": 15.1775171,
    "ECCENTRICITY": 4.077e-05,
    "INCLINATION": 97.4481,
    "RA_OF_ASC_NODE": 66.6052,
    "ARG_OF_PERICENTER": 171.2014,
    "MEAN_ANOMALY": 188.9227,
    "EPHEMERIS_TYPE": 0,
    "CLASSIFICATION_TYPE": "U",
    "NORAD_CAT_ID": 68424,
    "ELEMENT_SET_NO": 999,
    "REV_AT_EPOCH": 269,
    "BSTAR": 0.00019203216,
    "MEAN_MOTION_DOT": 3.81e-05,
    "MEAN_MOTION_DDOT": 0
  },
  {
    "OBJECT_NAME": "TRANSPORTER-16 OBJECT K",
    "OBJECT_ID": "2026-067K",
    "EPOCH": "2026-04-16T20:04:20.905248",
    "MEAN_MOTION": 15.18182792,
    "ECCENTRICITY": 0.00023872,
    "INCLINATION": 97.4544,
    "RA_OF_ASC_NODE": 66.2367,
    "ARG_OF_PERICENTER": 131.5727,
    "MEAN_ANOMALY": 228.5712,
    "EPHEMERIS_TYPE": 0,
    "CLASSIFICATION_TYPE": "U",
    "NORAD_CAT_ID": 68425,
    "ELEMENT_SET_NO": 999,
    "REV_AT_EPOCH": 263,
    "BSTAR": 0.00016761255,
    "MEAN_MOTION_DOT": 3.358e-05,
    "MEAN_MOTION_DDOT": 0
  },
  {
    "OBJECT_NAME": "TRANSPORTER-16 OBJECT L",
    "OBJECT_ID": "2026-067L",
    "EPOCH": "2026-04-16T20:02:15.423072",
    "MEAN_MOTION": 15.18408062,
    "ECCENTRICITY": 0.00024696,
    "INCLINATION": 97.4504,
    "RA_OF_ASC_NODE": 66.2306,
    "ARG_OF_PERICENTER": 135.7217,
    "MEAN_ANOMALY": 224.4215,
    "EPHEMERIS_TYPE": 0,
    "CLASSIFICATION_TYPE": "U",
    "NORAD_CAT_ID": 68426,
    "ELEMENT_SET_NO": 999,
    "REV_AT_EPOCH": 263,
    "BSTAR": 0.0003645297,
    "MEAN_MOTION_DOT": 7.434e-05,
    "MEAN_MOTION_DDOT": 0
  },
  {
    "OBJECT_NAME": "TRANSPORTER-16 OBJECT M",
    "OBJECT_ID": "2026-067M",
    "EPOCH": "2026-04-16T20:03:09.772992",
    "MEAN_MOTION": 15.18316917,
    "ECCENTRICITY": 0.00023375,
    "INCLINATION": 97.4505,
    "RA_OF_ASC_NODE": 66.2301,
    "ARG_OF_PERICENTER": 134.9783,
    "MEAN_ANOMALY": 225.1641,
    "EPHEMERIS_TYPE": 0,
    "CLASSIFICATION_TYPE": "U",
    "NORAD_CAT_ID": 68427,
    "ELEMENT_SET_NO": 999,
    "REV_AT_EPOCH": 263,
    "BSTAR": 0.00029922642,
    "MEAN_MOTION_DOT": 6.073e-05,
    "MEAN_MOTION_DDOT": 0
  },
  {
    "OBJECT_NAME": "TRANSPORTER-16 OBJECT N",
    "OBJECT_ID": "2026-067N",
    "EPOCH": "2026-04-16T20:06:31.300992",
    "MEAN_MOTION": 15.18037757,
    "ECCENTRICITY": 0.00018112,
    "INCLINATION": 97.4527,
    "RA_OF_ASC_NODE": 66.2317,
    "ARG_OF_PERICENTER": 143.7493,
    "MEAN_ANOMALY": 216.3864,
    "EPHEMERIS_TYPE": 0,
    "CLASSIFICATION_TYPE": "U",
    "NORAD_CAT_ID": 68428,
    "ELEMENT_SET_NO": 999,
    "REV_AT_EPOCH": 263,
    "BSTAR": 0.00013899654,
    "MEAN_MOTION_DOT": 2.762e-05,
    "MEAN_MOTION_DDOT": 0
  },
  {
    "OBJECT_NAME": "TRANSPORTER-16 OBJECT P",
    "OBJECT_ID": "2026-067P",
    "EPOCH": "2026-04-16T20:07:48.069984",
    "MEAN_MOTION": 15.18073013,
    "ECCENTRICITY": 0.00012724,
    "INCLINATION": 97.4472,
    "RA_OF_ASC_NODE": 66.2165,
    "ARG_OF_PERICENTER": 186.8969,
    "MEAN_ANOMALY": 173.2247,
    "EPHEMERIS_TYPE": 0,
    "CLASSIFICATION_TYPE": "U",
    "NORAD_CAT_ID": 68429,
    "ELEMENT_SET_NO": 999,
    "REV_AT_EPOCH": 263,
    "BSTAR": 0.00037342452,
    "MEAN_MOTION_DOT": 7.544e-05,
    "MEAN_MOTION_DDOT": 0
  },
  {
    "OBJECT_NAME": "TRANSPORTER-16 OBJECT Q",
    "OBJECT_ID": "2026-067Q",
    "EPOCH": "2026-04-16T20:04:14.539296",
    "MEAN_MOTION": 15.18231862,
    "ECCENTRICITY": 0.00019886,
    "INCLINATION": 97.446,
    "RA_OF_ASC_NODE": 66.2193,
    "ARG_OF_PERICENTER": 105.6798,
    "MEAN_ANOMALY": 254.4655,
    "EPHEMERIS_TYPE": 0,
    "CLASSIFICATION_TYPE": "U",
    "NORAD_CAT_ID": 68430,
    "ELEMENT_SET_NO": 999,
    "REV_AT_EPOCH": 263,
    "BSTAR": 0.00023232101,
    "MEAN_MOTION_DOT": 4.688e-05,
    "MEAN_MOTION_DDOT": 0
  },
  {
    "OBJECT_NAME": "DISCO-2",
    "OBJECT_ID": "2026-067R",
    "EPOCH": "2026-04-16T20:05:25.376064",
    "MEAN_MOTION": 15.18165231,
    "ECCENTRICITY": 0.0002261,
    "INCLINATION": 97.4559,
    "RA_OF_ASC_NODE": 66.2394,
    "ARG_OF_PERICENTER": 153.8356,
    "MEAN_ANOMALY": 206.2993,
    "EPHEMERIS_TYPE": 0,
    "CLASSIFICATION_TYPE": "U",
    "NORAD_CAT_ID": 68431,
    "ELEMENT_SET_NO": 999,
    "REV_AT_EPOCH": 263,
    "BSTAR": 0.00027913861,
    "MEAN_MOTION_DOT": 5.636e-05,
    "MEAN_MOTION_DDOT": 0
  },
  {
    "OBJECT_NAME": "TRANSPORTER-16 OBJECT S",
    "OBJECT_ID": "2026-067S",
    "EPOCH": "2026-04-16T21:43:51.823488",
    "MEAN_MOTION": 15.17914986,
    "ECCENTRICITY": 0.00013064,
    "INCLINATION": 97.4514,
    "RA_OF_ASC_NODE": 66.2928,
    "ARG_OF_PERICENTER": 179.632,
    "MEAN_ANOMALY": 180.4915,
    "EPHEMERIS_TYPE": 0,
    "CLASSIFICATION_TYPE": "U",
    "NORAD_CAT_ID": 68432,
    "ELEMENT_SET_NO": 999,
    "REV_AT_EPOCH": 264,
    "BSTAR": 0.00019391162,
    "MEAN_MOTION_DOT": 3.866e-05,
    "MEAN_MOTION_DDOT": 0
  },
  {
    "OBJECT_NAME": "TRANSPORTER-16 OBJECT T",
    "OBJECT_ID": "2026-067T",
    "EPOCH": "2026-04-17T02:46:51.335616",
    "MEAN_MOTION": 15.16812548,
    "ECCENTRICITY": 0.00038646,
    "INCLINATION": 97.4531,
    "RA_OF_ASC_NODE": 66.473,
    "ARG_OF_PERICENTER": 277.5278,
    "MEAN_ANOMALY": 82.5516,
    "EPHEMERIS_TYPE": 0,
    "CLASSIFICATION_TYPE": "U",
    "NORAD_CAT_ID": 68433,
    "ELEMENT_SET_NO": 999,
    "REV_AT_EPOCH": 267,
    "BSTAR": 0.00017379335,
    "MEAN_MOTION_DOT": 3.349e-05,
    "MEAN_MOTION_DDOT": 0
  },
  {
    "OBJECT_NAME": "TRANSPORTER-16 OBJECT U",
    "OBJECT_ID": "2026-067U",
    "EPOCH": "2026-04-16T20:04:22.857024",
    "MEAN_MOTION": 15.18166632,
    "ECCENTRICITY": 0.0002368,
    "INCLINATION": 97.4537,
    "RA_OF_ASC_NODE": 66.2355,
    "ARG_OF_PERICENTER": 134.5667,
    "MEAN_ANOMALY": 225.576,
    "EPHEMERIS_TYPE": 0,
    "CLASSIFICATION_TYPE": "U",
    "NORAD_CAT_ID": 68434,
    "ELEMENT_SET_NO": 999,
    "REV_AT_EPOCH": 263,
    "BSTAR": 0.00014030208,
    "MEAN_MOTION_DOT": 2.799e-05,
    "MEAN_MOTION_DDOT": 0
  },
  {
    "OBJECT_NAME": "TRANSPORTER-16 OBJECT V",
    "OBJECT_ID": "2026-067V",
    "EPOCH": "2026-04-17T05:42:49.578912",
    "MEAN_MOTION": 15.17618942,
    "ECCENTRICITY": 7.883e-05,
    "INCLINATION": 97.4507,
    "RA_OF_ASC_NODE": 66.6113,
    "ARG_OF_PERICENTER": 235.9341,
    "MEAN_ANOMALY": 124.1818,
    "EPHEMERIS_TYPE": 0,
    "CLASSIFICATION_TYPE": "U",
    "NORAD_CAT_ID": 68435,
    "ELEMENT_SET_NO": 999,
    "REV_AT_EPOCH": 269,
    "BSTAR": 0.00010932265,
    "MEAN_MOTION_DOT": 2.131e-05,
    "MEAN_MOTION_DDOT": 0
  },
  {
    "OBJECT_NAME": "TRANSPORTER-16 OBJECT W",
    "OBJECT_ID": "2026-067W",
    "EPOCH": "2026-04-16T20:14:49.364160",
    "MEAN_MOTION": 15.17303223,
    "ECCENTRICITY": 6.91e-05,
    "INCLINATION": 97.4503,
    "RA_OF_ASC_NODE": 66.2199,
    "ARG_OF_PERICENTER": 234.521,
    "MEAN_ANOMALY": 125.5959,
    "EPHEMERIS_TYPE": 0,
    "CLASSIFICATION_TYPE": "U",
    "NORAD_CAT_ID": 68436,
    "ELEMENT_SET_NO": 999,
    "REV_AT_EPOCH": 263,
    "BSTAR": 0.00013245359,
    "MEAN_MOTION_DOT": 2.573e-05,
    "MEAN_MOTION_DDOT": 0
  },
  {
    "OBJECT_NAME": "TRANSPORTER-16 OBJECT X",
    "OBJECT_ID": "2026-067X",
    "EPOCH": "2026-04-16T02:45:29.201184",
    "MEAN_MOTION": 15.17975285,
    "ECCENTRICITY": 5.523e-05,
    "INCLINATION": 97.4461,
    "RA_OF_ASC_NODE": 65.4999,
    "ARG_OF_PERICENTER": 200.3525,
    "MEAN_ANOMALY": 159.7687,
    "EPHEMERIS_TYPE": 0,
    "CLASSIFICATION_TYPE": "U",
    "NORAD_CAT_ID": 68437,
    "ELEMENT_SET_NO": 999,
    "REV_AT_EPOCH": 252,
    "BSTAR": 0.00012800449,
    "MEAN_MOTION_DOT": 2.533e-05,
    "MEAN_MOTION_DDOT": 0
  }
]