TRANSPORTER-16 OBJECT J 
1 68424U 26067J   26107.23697203  .00003810  00000+0  19203-3 0  9992
2 68424  97.4481  66.6052 0000407 171.2014 188.9227 15.17751710  2690
TRANSPORTER-16 OBJECT K 
1 68425U 26067K   26106.83635307  .00003358  00000+0  16761-3 0  9998
2 68425  97.4544  66.2367 0002387 131.5727 228.5712 15.18182792  2638
TRANSPORTER-16 OBJECT L 
1 68426U 26067L   26106.83490073  .00007434  00000+0  36453-3 0  9997
2 68426  97.4504  66.2306 0002469 135.7217 224.4215 15.18408062  2633
TRANSPORTER-16 OBJECT M 
1 68427U 26067M   26106.83552978  .00006073  00000+0  29923-3 0  9993
2 68427  97.4505  66.2301 0002337 134.9783 225.1641 15.18316917  2631
TRANSPORTER-16 OBJECT N 
1 68428U 26067N   26106.83786228  .00002762  00000+0  13900-3 0  9990
2 68428  97.4527  66.2317 0001811 143.7493 216.3864 15.18037757  2636
TRANSPORTER-16 OBJECT P 
1 68429U 26067P   26106.83875081  .00007544  00000+0  37342-3 0  9996
2 68429  97.4472  66.2165 0001272 186.8969 173.2247 15.18073013  2635
TRANSPORTER-16 OBJECT Q 
1 68430U 26067Q   26106.83627939  .00004688  00000+0  23232-3 0  9994
2 68430  97.4460  66.2193 0001988 105.6798 254.4655 15.18231862  2631
DISCO-2                 
1 68431U 26067R   26106.83709926  .00005636  00000+0  27914-3 0  9997
2 68431  97.4559  66.2394 0002261 153.8356 206.2993 15.18165231  2630
TRANSPORTER-16 OBJECT S 
1 68432U 26067S   26106.90546092  .00003866  00000+0  19391-3 0  9992
2 68432  97.4514  66.2928 0001306 179.6320 180.4915 15.17914986  2647
TRANSPORTER-16 OBJECT T 
1 68433U 26067T   26107.11587194  .00003349  00000+0  17379-3 0  9995
2 68433  97.4531  66.4730 0003864 277.5278  82.5516 15.16812548  2673
TRANSPORTER-16 OBJECT U 
1 68434U 26067U   26106.83637566  .00002799  00000+0  14030-3 0  9992
2 68434  97.4537  66.2355 0002368 134.5667 225.5760 15.18166632  2637
TRANSPORTER-16 OBJECT V 
1 68435U 26067V   26107.23807383  .00002131  00000+0  10932-3 0  9991
2 68435  97.4507  66.6113 0000788 235.9341 124.1818 15.17618942  2699
TRANSPORTER-16 OBJECT W 
1 68436U 26067W   26106.84362690  .00002573  00000+0  13245-3 0  9995
2 68436  97.4503  66.2199 0000691 234.5210 125.5959 15.17303223  2637
TRANSPORTER-16 OBJECT X 
1 68437U 26067X   26106.11492131  .00002533  00000+0  12800-3 0  9992
2 68437  97.4461  65.4999 0000552 200.3525 159.7687 15.17975285  2524
